{
  "type": "FeatureCollection",
  "features": [
    {
      "type": "Feature",
      "properties": {
        "norad_id": 34079,
        "name": "IRIDIUM 33 DEB",
        "group": "iridium-33-debris",
        "lat": -9.570772997682777,
        "lon": 9.758672909727764,
        "alt_km": 619.217522254361,
        "timestamp": "2025-12-08T23:34:04.356026+00:00",
        "meta_object_name": "IRIDIUM 33 DEB",
        "meta_object_id": "1997-051CN",
        "meta_epoch": "2025-12-08T14:27:48.844224",
        "meta_mean_motion": 14.83361696,
        "meta_eccentricity": 0.0006131,
        "meta_inclination": 86.3772,
        "meta_ra_of_asc_node": 10.5432,
        "meta_arg_of_pericenter": 20.96,
        "meta_mean_anomaly": 105.1893,
        "meta_ephemeris_type": 0,
        "meta_classification_type": "U",
        "meta_norad_cat_id": 34079,
        "meta_element_set_no": 999,
        "meta_rev_at_epoch": 88916,
        "meta_bstar": 0.0020759134,
        "meta_mean_motion_dot": 0.00017066,
        "meta_mean_motion_ddot": 0,
        "tle_line1": "1 34079U 97051CN  25342.60264866  .00017066  00000+0  20759-2 0  9993",
        "tle_line2": "2 34079  86.3772  10.5432 0006131  20.9600 105.1893 14.83361696889167"
      },
      "geometry": {
        "type": "Point",
        "coordinates": [
          9.758672909727764,
          -9.570772997682777
        ]
      }
    },
    {
      "type": "Feature",
      "properties": {
        "norad_id": 34088,
        "name": "IRIDIUM 33 DEB",
        "group": "iridium-33-debris",
        "lat": -23.409968275331966,
        "lon": 30.88170198633573,
        "alt_km": 603.2679114495295,
        "timestamp": "2025-12-08T23:34:04.356037+00:00",
        "meta_object_name": "IRIDIUM 33 DEB",
        "meta_object_id": "1997-051CX",
        "meta_epoch": "2025-12-08T09:14:37.873248",
        "meta_mean_motion": 14.91059451,
        "meta_eccentricity": 0.00054088,
        "meta_inclination": 86.3847,
        "meta_ra_of_asc_node": 32.7243,
        "meta_arg_of_pericenter": 192.5311,
        "meta_mean_anomaly": 182.4929,
        "meta_ephemeris_type": 0,
        "meta_classification_type": "U",
        "meta_norad_cat_id": 34088,
        "meta_element_set_no": 999,
        "meta_rev_at_epoch": 88677,
        "meta_bstar": 0.0028349057,
        "meta_mean_motion_dot": 0.00028171,
        "meta_mean_motion_ddot": 0,
        "tle_line1": "1 34088U 97051CX  25342.38516057  .00028171  00000+0  28349-2 0  9992",
        "tle_line2": "2 34088  86.3847  32.7243 0005408 192.5311 182.4929 14.91059451886771"
      },
      "geometry": {
        "type": "Point",
        "coordinates": [
          30.88170198633573,
          -23.409968275331966
        ]
      }
    },
    {
      "type": "Feature",
      "properties": {
        "norad_id": 34091,
        "name": "IRIDIUM 33 DEB",
        "group": "iridium-33-debris",
        "lat": -67.42412567475377,
        "lon": 59.70359609424893,
        "alt_km": 609.9391793861514,
        "timestamp": "2025-12-08T23:34:04.356048+00:00",
        "meta_object_name": "IRIDIUM 33 DEB",
        "meta_object_id": "1997-051DA",
        "meta_epoch": "2025-12-08T12:31:21.845568",
        "meta_mean_motion": 14.8131236,
        "meta_eccentricity": 0.0033116,
        "meta_inclination": 86.3421,
        "meta_ra_of_asc_node": 68.7652,
        "meta_arg_of_pericenter": 308.4379,
        "meta_mean_anomaly": 51.3871,
        "meta_ephemeris_type": 0,
        "meta_classification_type": "U",
        "meta_norad_cat_id": 34091,
        "meta_element_set_no": 999,
        "meta_rev_at_epoch": 87804,
        "meta_bstar": 0.0059410068,
        "meta_mean_motion_dot": 0.00047075,
        "meta_mean_motion_ddot": 0,
        "tle_line1": "1 34091U 97051DA  25342.52178062  .00047075  00000+0  59410-2 0  9999",
        "tle_line2": "2 34091  86.3421  68.7652 0033116 308.4379  51.3871 14.81312360878046"
      },
      "geometry": {
        "type": "Point",
        "coordinates": [
          59.70359609424893,
          -67.42412567475377
        ]
      }
    },
    {
      "type": "Feature",
      "properties": {
        "norad_id": 34097,
        "name": "IRIDIUM 33 DEB",
        "group": "iridium-33-debris",
        "lat": 84.22686482983399,
        "lon": 141.96444163993598,
        "alt_km": 757.6353057530059,
        "timestamp": "2025-12-08T23:34:04.356059+00:00",
        "meta_object_name": "IRIDIUM 33 DEB",
        "meta_object_id": "1997-051DG",
        "meta_epoch": "2025-12-08T13:05:32.172000",
        "meta_mean_motion": 14.34726574,
        "meta_eccentricity": 0.00830701,
        "meta_inclination": 86.1999,
        "meta_ra_of_asc_node": 3.2587,
        "meta_arg_of_pericenter": 15.8457,
        "meta_mean_anomaly": 344.5308,
        "meta_ephemeris_type": 0,
        "meta_classification_type": "U",
        "meta_norad_cat_id": 34097,
        "meta_element_set_no": 999,
        "meta_rev_at_epoch": 87059,
        "meta_bstar": 0.0020470122,
        "meta_mean_motion_dot": 6.046e-05,
        "meta_mean_motion_ddot": 0,
        "tle_line1": "1 34097U 97051DG  25342.54551125  .00006046  00000+0  20470-2 0  9999",
        "tle_line2": "2 34097  86.1999   3.2587 0083070  15.8457 344.5308 14.34726574870599"
      },
      "geometry": {
        "type": "Point",
        "coordinates": [
          141.96444163993598,
          84.22686482983399
        ]
      }
    },
    {
      "type": "Feature",
      "properties": {
        "norad_id": 34145,
        "name": "IRIDIUM 33 DEB",
        "group": "iridium-33-debris",
        "lat": -80.65372237818707,
        "lon": 177.9416385732788,
        "alt_km": 794.6241735903313,
        "timestamp": "2025-12-08T23:34:04.356069+00:00",
        "meta_object_name": "IRIDIUM 33 DEB",
        "meta_object_id": "1997-051DY",
        "meta_epoch": "2025-12-07T23:03:04.751424",
        "meta_mean_motion": 14.42235871,
        "meta_eccentricity": 0.0055559,
        "meta_inclination": 86.2113,
        "meta_ra_of_asc_node": 334.6546,
        "meta_arg_of_pericenter": 109.0134,
        "meta_mean_anomaly": 251.7097,
        "meta_ephemeris_type": 0,
        "meta_classification_type": "U",
        "meta_norad_cat_id": 34145,
        "meta_element_set_no": 999,
        "meta_rev_at_epoch": 87569,
        "meta_bstar": 0.0013920574,
        "meta_mean_motion_dot": 4.693e-05,
        "meta_mean_motion_ddot": 0,
        "tle_line1": "1 34145U 97051DY  25341.96047166  .00004693  00000+0  13921-2 0  9992",
        "tle_line2": "2 34145  86.2113 334.6546 0055559 109.0134 251.7097 14.42235871875691"
      },
      "geometry": {
        "type": "Point",
        "coordinates": [
          177.9416385732788,
          -80.65372237818707
        ]
      }
    },
    {
      "type": "Feature",
      "properties": {
        "norad_id": 34146,
        "name": "IRIDIUM 33 DEB",
        "group": "iridium-33-debris",
        "lat": 12.61339034262722,
        "lon": 170.62687235466873,
        "alt_km": 723.3993545447329,
        "timestamp": "2025-12-08T23:34:04.356080+00:00",
        "meta_object_name": "IRIDIUM 33 DEB",
        "meta_object_id": "1997-051DZ",
        "meta_epoch": "2025-12-08T11:45:05.493024",
        "meta_mean_motion": 14.49003578,
        "meta_eccentricity": 0.00251689,
        "meta_inclination": 86.2833,
        "meta_ra_of_asc_node": 351.6777,
        "meta_arg_of_pericenter": 236.7586,
        "meta_mean_anomaly": 244.1016,
        "meta_ephemeris_type": 0,
        "meta_classification_type": "U",
        "meta_norad_cat_id": 34146,
        "meta_element_set_no": 999,
        "meta_rev_at_epoch": 88045,
        "meta_bstar": 0.0014201517,
        "meta_mean_motion_dot": 5.425e-05,
        "meta_mean_motion_ddot": 0,
        "tle_line1": "1 34146U 97051DZ  25342.48964691  .00005425  00000+0  14202-2 0  9999",
        "tle_line2": "2 34146  86.2833 351.6777 0025168 236.7586 244.1016 14.49003578880459"
      },
      "geometry": {
        "type": "Point",
        "coordinates": [
          170.62687235466873,
          12.61339034262722
        ]
      }
    },
    {
      "type": "Feature",
      "properties": {
        "norad_id": 34159,
        "name": "IRIDIUM 33 DEB",
        "group": "iridium-33-debris",
        "lat": 24.890391291227576,
        "lon": 51.54030525295157,
        "alt_km": 760.8500025893791,
        "timestamp": "2025-12-08T23:34:04.356091+00:00",
        "meta_object_name": "IRIDIUM 33 DEB",
        "meta_object_id": "1997-051EN",
        "meta_epoch": "2025-12-08T15:06:18.156384",
        "meta_mean_motion": 14.38478952,
        "meta_eccentricity": 0.00260475,
        "meta_inclination": 86.3515,
        "meta_ra_of_asc_node": 49.9941,
        "meta_arg_of_pericenter": 302.3389,
        "meta_mean_anomaly": 57.5287,
        "meta_ephemeris_type": 0,
        "meta_classification_type": "U",
        "meta_norad_cat_id": 34159,
        "meta_element_set_no": 999,
        "meta_rev_at_epoch": 87900,
        "meta_bstar": 0.00073352288,
        "meta_mean_motion_dot": 2.267e-05,
        "meta_mean_motion_ddot": 0,
        "tle_line1": "1 34159U 97051EN  25342.62937681  .00002267  00000+0  73352-3 0  9991",
        "tle_line2": "2 34159  86.3515  49.9941 0026047 302.3389  57.5287 14.38478952879004"
      },
      "geometry": {
        "type": "Point",
        "coordinates": [
          51.54030525295157,
          24.890391291227576
        ]
      }
    }
  ]
}